NORAD_CAT_ID,OBJECT_NAME,OBJECT_TYPE,EPOCH,MEAN_MOTION,ECCENTRICITY,INCLINATION,RA_OF_ASC_NODE,ARG_OF_PERICENTER,MEAN_ANOMALY,BSTAR,MEAN_MOTION_DOT,MEAN_MOTION_DDOT,TLE_LINE0,TLE_LINE1,TLE_LINE2,SEMIMAJOR_AXIS,PERIOD,APOGEE,PERIGEE,DECAYED
54791.0,STARLINK-5425,PAYLOAD,2023-03-13 11:30:19,15.08832366,0.0001489,53.2173,252.1849,87.28,272.8363,-5.8188e-06,-3.81e-06,0.0,0 STARLINK-5425,1 54791U 22175AK  23072.47939058 -.00000381  00000-0 -58188-5 0  9991,2 54791  53.2173 252.1849 0001489  87.2800 272.8363 15.08832366 13082,6917.904,95.438,540.799,538.739,0.0
54791.0,STARLINK-5425,PAYLOAD,2023-03-13 21:02:37,15.08840252,0.0001886,53.2168,250.4009,82.7182,277.4025,-2.799e-05,-7.34e-06,0.0,0 STARLINK-5425,1 54791U 22175AK  23072.87682744 -.00000734  00000-0 -27990-4 0  9990,2 54791  53.2168 250.4009 0001886  82.7182 277.4025 15.08840252 15305,6917.88,95.438,541.049,538.44,0.0
54791.0,STARLINK-5425,PAYLOAD,2023-03-14 11:21:05,15.08847122,0.0001497,53.2159,247.7235,87.6132,272.5032,-2.3138e-05,-6.56e-06,0.0,0 STARLINK-5425,1 54791U 22175AK  23073.47298176 -.00000656  00000-0 -23138-4 0  9992,2 54791  53.2159 247.7235 0001497  87.6132 272.5032 15.08847122 15398,6917.859,95.437,540.759,538.688,0.0
54791.0,STARLINK-5425,PAYLOAD,2023-03-14 17:42:37,15.0885445,0.0001503,53.2153,246.5344,85.8427,274.2737,2.9715e-05,1.85e-06,0.0,0 STARLINK-5425,1 54791U 22175AK  23073.73793313  .00000185  00000-0  29715-4 0  9996,2 54791  53.2153 246.5344 0001503  85.8427 274.2737 15.08854450 13273,6917.836,95.437,540.741,538.661,0.0
54791.0,STARLINK-5425,PAYLOAD,2023-03-15 04:50:20,15.08839161,0.0002039,53.2138,244.4538,80.9721,279.1501,-0.00010855,-2.015e-05,0.0,0 STARLINK-5425,1 54791U 22175AK  23074.20162599 -.00002015  00000-0 -10855-3 0  9995,2 54791  53.2138 244.4538 0002039  80.9721 279.1501 15.08839161 13349,6917.883,95.438,541.159,538.337,0.0
54791.0,STARLINK-5425,PAYLOAD,2023-03-15 11:11:52,15.08833619,9.59e-05,53.2194,243.2645,81.5463,278.5638,1.1199e-05,-1.1e-06,0.0,0 STARLINK-5425,1 54791U 22175AK  23074.46658217 -.00000110  00000-0  11199-4 0  9996,2 54791  53.2194 243.2645 0000959  81.5463 278.5638 15.08833619 15546,6917.9,95.438,540.428,539.101,0.0
54791.0,STARLINK-5425,PAYLOAD,2023-03-15 20:44:10,15.08849732,0.0001713,53.2142,241.4778,87.8851,272.2337,7.846e-05,9.61e-06,0.0,0 STARLINK-5425,1 54791U 22175AK  23074.86400854  .00000961  00000-0  78460-4 0  9999,2 54791  53.2142 241.4778 0001713  87.8851 272.2337 15.08849732 15602,6917.851,95.437,540.901,538.531,0.0
54791.0,STARLINK-5425,PAYLOAD,2023-03-16 11:02:40,15.08833273,0.000191,53.2126,238.8012,100.0447,260.076,-0.00016015,-2.836e-05,0.0,0 STARLINK-5425,1 54791U 22175AK  23075.46018765 -.00002836  00000-0 -16015-3 0  9994,2 54791  53.2126 238.8012 0001910 100.0447 260.0760 15.08833273 13531,6917.901,95.438,541.087,538.445,0.0
54791.0,STARLINK-5425,PAYLOAD,2023-03-16 20:34:59,15.08828472,0.0001532,53.2162,237.0192,93.9352,266.1816,-0.00021455,-3.7e-05,0.0,0 STARLINK-5425,1 54791U 22175AK  23075.85763465 -.00003700  00000-0 -21455-3 0  9996,2 54791  53.2162 237.0192 0001532  93.9352 266.1816 15.08828472 15756,6917.916,95.438,540.84,538.721,0.0
54791.0,STARLINK-5425,PAYLOAD,2023-03-17 10:53:27,15.08827786,0.0001362,53.2173,234.3432,93.2825,266.8323,2.5088e-07,-2.84e-06,0.0,0 STARLINK-5425,1 54791U 22175AK  23076.45379049 -.00000284  00000-0  25088-6 0  9996,2 54791  53.2173 234.3432 0001362  93.2825 266.8323 15.08827786 15841,6917.918,95.438,540.725,538.841,0.0
54791.0,STARLINK-5425,PAYLOAD,2023-03-17 17:14:59,15.0884333,0.0001268,53.2144,233.1519,93.9503,266.1634,-1.8656e-05,-5.85e-06,0.0,0 STARLINK-5425,1 54791U 22175AK  23076.71874188 -.00000585  00000-0 -18656-4 0  9995,2 54791  53.2144 233.1519 0001268  93.9503 266.1634 15.08843330 13723,6917.87,95.437,540.612,538.858,0.0
54791.0,STARLINK-5425,PAYLOAD,2023-03-18 02:47:18,15.08828628,0.0001551,53.2148,231.3688,104.9529,255.1635,9.9351e-05,1.293e-05,0.0,0 STARLINK-5425,1 54791U 22175AK  23077.11618619  .00001293  00000-0  99351-4 0  9991,2 54791  53.2148 231.3688 0001551 104.9529 255.1635 15.08828628 13788,6917.915,95.438,540.853,538.707,0.0
54791.0,STARLINK-5425,PAYLOAD,2023-03-18 17:05:45,15.08838246,0.0001107,53.2157,228.692,98.9329,261.1788,0.00021799,3.183e-05,0.0,0 STARLINK-5425,1 54791U 22175AK  23077.71233795  .00003183  00000-0  21799-3 0  9995,2 54791  53.2157 228.6920 0001107  98.9329 261.1788 15.08838246 13876,6917.886,95.438,540.517,538.985,0.0
54791.0,STARLINK-5425,PAYLOAD,2023-03-19 02:38:06,15.08821489,0.0001892,53.2162,226.9053,88.8979,271.223,-5.1294e-05,-1.104e-05,0.0,0 STARLINK-5425,1 54791U 22175AK  23078.10980056 -.00001104  00000-0 -51294-4 0  9995,2 54791  53.2162 226.9053 0001892  88.8979 271.2230 15.08821489 13932,6917.937,95.439,541.111,538.493,0.0
54791.0,STARLINK-5425,PAYLOAD,2023-03-19 10:35:01,15.088326,9.99e-05,53.2175,225.4192,99.952,260.1585,-0.00011126,-2.058e-05,0.0,0 STARLINK-5425,1 54791U 22175AK  23078.44099499 -.00002058  00000-0 -11126-3 0  9992,2 54791  53.2175 225.4192 0000999  99.9520 260.1585 15.08832600 13988,6917.903,95.438,540.459,539.077,0.0
54791.0,STARLINK-5425,PAYLOAD,2023-03-19 13:45:47,15.08838094,5.83e-05,53.217,224.8244,100.2516,259.8542,-5.0421e-05,-1.09e-05,0.0,0 STARLINK-5425,1 54791U 22175AK  23078.57346900 -.00001090  00000-0 -50421-4 0  9995,2 54791  53.2170 224.8244 0000583 100.2516 259.8542 15.08838094 16168,6917.886,95.438,540.155,539.348,0.0
54791.0,STARLINK-5425,PAYLOAD,2023-03-19 16:56:33,15.08843668,9.63e-05,53.2158,224.2319,111.3305,248.7789,1.7692e-06,-2.6e-06,0.0,0 STARLINK-5425,1 54791U 22175AK  23078.70594335 -.00000260  00000-0  17692-5 0  9998,2 54791  53.2158 224.2319 0000963 111.3305 248.7789 15.08843668 14028,6917.869,95.437,540.4,539.068,0.0
54791.0,STARLINK-5425,PAYLOAD,2023-03-20 13:36:35,15.08833529,0.0001207,53.2183,220.3669,96.4758,263.6372,-9.0501e-05,-1.728e-05,0.0,0 STARLINK-5425,1 54791U 22175AK  23079.56707320 -.00001728  00000-0 -90501-4 0  9993,2 54791  53.2183 220.3669 0001207  96.4758 263.6372 15.08833529 16311,6917.9,95.438,540.6,538.93,0.0
54791.0,STARLINK-5425,PAYLOAD,2023-03-20 15:11:58,15.08839272,0.0001352,53.2174,220.0679,86.9575,273.1572,-0.00010772,-2.002e-05,0.0,0 STARLINK-5425,1 54791U 22175AK  23079.63331085 -.00002002  00000-0 -10772-3 0  9999,2 54791  53.2174 220.0679 0001352  86.9575 273.1572 15.08839272 14161,6917.883,95.438,540.683,538.812,0.0
54791.0,STARLINK-5425,PAYLOAD,2023-03-20 16:47:21,15.08839059,0.0001437,53.218,219.7708,91.8956,268.2201,-8.0246e-05,-1.565e-05,0.0,0 STARLINK-5425,1 54791U 22175AK  23079.69955004 -.00001565  00000-0 -80246-4 0  9995,2 54791  53.2180 219.7708 0001437  91.8956 268.2201 15.08839059 16336,6917.883,95.438,540.742,538.754,0.0
54791.0,STARLINK-5425,PAYLOAD,2023-03-21 02:19:40,15.08833077,9.4e-05,53.2169,217.9862,96.0165,264.0934,-0.00021677,-3.735e-05,0.0,0 STARLINK-5425,1 54791U 22175AK  23080.09699484 -.00003735  00000-0 -21677-3 0  9991,2 54791  53.2169 217.9862 0000940  96.0165 264.0934 15.08833077 14239,6917.902,95.438,540.417,539.116,0.0
54791.0,STARLINK-5425,PAYLOAD,2023-03-21 13:27:21,15.08837781,0.0001149,53.2172,215.9084,101.1522,258.9599,3.6694e-05,2.96e-06,0.0,0 STARLINK-5425,1 54791U 22175AK  23080.56066584  .00000296  00000-0  36694-4 0  9995,2 54791  53.2172 215.9084 0001149 101.1522 258.9599 15.08837781 14307,6917.887,95.438,540.547,538.957,0.0
54791.0,STARLINK-5425,PAYLOAD,2023-03-22 02:10:25,15.08848505,8.34e-05,53.2172,213.5274,99.7352,260.3734,6.4885e-05,7.45e-06,0.0,0 STARLINK-5425,1 54791U 22175AK  23081.09057605  .00000745  00000-0  64885-4 0  9990,2 54791  53.2172 213.5274 0000834  99.7352 260.3734 15.08848505 14387,6917.854,95.437,540.296,539.142,0.0
54791.0,STARLINK-5425,PAYLOAD,2023-03-22 08:31:59,15.08835344,0.0001584,53.2162,212.3403,84.5466,275.5707,4.5987e-05,4.44e-06,0.0,0 STARLINK-5425,1 54791U 22175AK  23081.35554733  .00000444  00000-0  45987-4 0  9991,2 54791  53.2162 212.3403 0001584  84.5466 275.5707 15.08835344 14428,6917.895,95.438,540.855,538.664,0.0
54791.0,STARLINK-5425,PAYLOAD,2023-03-22 14:53:31,15.08843016,0.0001439,53.2164,211.1489,90.5842,269.5315,-1.8518e-05,-5.83e-06,0.0,0 STARLINK-5425,1 54791U 22175AK  23081.62050510 -.00000583  00000-0 -18518-4 0  9991,2 54791  53.2164 211.1489 0001439  90.5842 269.5315 15.08843016 16622,6917.871,95.437,540.732,538.741,0.0
54791.0,STARLINK-5425,PAYLOAD,2023-03-23 11:33:32,15.08839019,0.0001489,53.2185,207.2832,99.0885,261.0276,-1.7321e-05,-5.64e-06,0.0,0 STARLINK-5425,1 54791U 22175AK  23082.48162694 -.00000564  00000-0 -17321-4 0  9993,2 54791  53.2185 207.2832 0001489  99.0885 261.0276 15.08839019 14594,6917.883,95.438,540.778,538.718,0.0
54791.0,STARLINK-5425,PAYLOAD,2023-03-23 13:08:55,15.08839822,0.0001475,53.2164,206.9872,62.425,297.6891,-1.1859e-05,-4.77e-06,0.0,0 STARLINK-5425,1 54791U 22175AK  23082.54786798 -.00000477  00000-0 -11859-4 0  9990,2 54791  53.2164 206.9872 0001475  62.4250 297.6891 15.08839822 16767,6917.881,95.438,540.766,538.726,0.0
54791.0,STARLINK-5425,PAYLOAD,2023-03-23 14:44:18,15.0884511,0.0001327,53.2158,206.6879,74.0375,286.0763,1.2391e-05,-9.1e-07,0.0,0 STARLINK-5425,1 54791U 22175AK  23082.61410277 -.00000091  00000-0  12391-4 0  9997,2 54791  53.2158 206.6879 0001327  74.0375 286.0763 15.08845110 16775,6917.865,95.437,540.648,538.812,0.0
54791.0,STARLINK-5425,PAYLOAD,2023-03-24 11:24:15,15.08878159,0.0001406,53.2169,202.8241,84.1402,275.975,0.00032658,4.919e-05,0.0,0 STARLINK-5425,1 54791U 22175AK  23083.47518316  .00004919  00000-0  32658-3 0  9994,2 54791  53.2169 202.8241 0001406  84.1402 275.9750 15.08878159 14746,6917.764,95.435,540.601,538.656,0.0
54791.0,STARLINK-5425,PAYLOAD,2023-03-24 12:59:38,15.08879741,0.0001506,53.2167,202.5266,85.9908,274.1256,0.00033218,5.008e-05,0.0,0 STARLINK-5425,1 54791U 22175AK  23083.54142039  .00005008  00000-0  33218-3 0  9990,2 54791  53.2167 202.5266 0001506  85.9908 274.1256 15.08879741 16910,6917.759,95.435,540.666,538.582,0.0
